{
"type": "FeatureCollection",
"name": "positives",
"crs": { "type": "name", "properties": { "name": "urn:ogc:def:crs:OGC:1.3:CRS84" } },
"features": [
{ "type": "Feature", "properties": { "name": "Bhadrappa layout", "all_names": "Bhadrappa layout", "sources": "flood_prone_locations", "n_raw_points": 1, "lon": 77.576019532371916, "lat": 13.0484082909097, "label": 1 }, "geometry": { "type": "Point", "coordinates": [ 77.576019532371916, 13.0484082909097 ] } },
{ "type": "Feature", "properties": { "name": "Sampangiram Nagar", "all_names": "Sampangiram Nagar", "sources": "flood_prone_locations", "n_raw_points": 1, "lon": 77.574680103700103, "lat": 12.993628518441197, "label": 1 }, "geometry": { "type": "Point", "coordinates": [ 77.574680103700103, 12.993628518441197 ] } },
{ "type": "Feature", "properties": { "name": "KEB Compound Maththikere", "all_names": "KEB Compound Maththikere", "sources": "flood_prone_locations", "n_raw_points": 1, "lon": 77.558616790129193, "lat": 13.036299366522398, "label": 1 }, "geometry": { "type": "Point", "coordinates": [ 77.558616790129193, 13.036299366522398 ] } },
{ "type": "Feature", "properties": { "name": "Minerva Mill", "all_names": "Minerva Mill", "sources": "flood_prone_locations", "n_raw_points": 1, "lon": 77.564464147898505, "lat": 12.979452406103496, "label": 1 }, "geometry": { "type": "Point", "coordinates": [ 77.564464147898505, 12.979452406103496 ] } },
{ "type": "Feature", "properties": { "name": "Binny Mill Tank Area", "all_names": "Binny Mill Tank Area", "sources": "flood_prone_locations", "n_raw_points": 1, "lon": 77.568082792283406, "lat": 12.968746173197099, "label": 1 }, "geometry": { "type": "Point", "coordinates": [ 77.568082792283406, 12.968746173197099 ] } },
{ "type": "Feature", "properties": { "name": "Binny Mill Tank Area", "all_names": "Binny Mill Tank Area", "sources": "flood_prone_locations", "n_raw_points": 1, "lon": 77.571702903462594, "lat": 12.9742403689976, "label": 1 }, "geometry": { "type": "Point", "coordinates": [ 77.571702903462594, 12.9742403689976 ] } },
{ "type": "Feature", "properties": { "name": "Kamakshipalya Tank Slum Area", "all_names": "Kamakshipalya Tank Slum Area", "sources": "flood_prone_locations", "n_raw_points": 1, "lon": 77.527090813886701, "lat": 12.9886834477827, "label": 1 }, "geometry": { "type": "Point", "coordinates": [ 77.527090813886701, 12.9886834477827 ] } },
{ "type": "Feature", "properties": { "name": "Shivananda circle_Railway under pass", "all_names": "Shivananda circle_Railway under pass", "sources": "flood_prone_locations", "n_raw_points": 1, "lon": 77.577829017791203, "lat": 12.9877884559723, "label": 1 }, "geometry": { "type": "Point", "coordinates": [ 77.577829017791203, 12.9877884559723 ] } },
{ "type": "Feature", "properties": { "name": "Okalipuram Junction", "all_names": "Okalipuram Junction", "sources": "flood_prone_locations", "n_raw_points": 1, "lon": 77.5689299545501, "lat": 12.982687075048299, "label": 1 }, "geometry": { "type": "Point", "coordinates": [ 77.5689299545501, 12.982687075048299 ] } },
{ "type": "Feature", "properties": { "name": "Mekhri circle", "all_names": "Mekhri circle", "sources": "flood_prone_locations", "n_raw_points": 1, "lon": 77.583793447505798, "lat": 13.016990739630698, "label": 1 }, "geometry": { "type": "Point", "coordinates": [ 77.583793447505798, 13.016990739630698 ] } },
{ "type": "Feature", "properties": { "name": "Railway underbridge near Kino theatre", "all_names": "Railway underbridge near Kino theatre", "sources": "flood_prone_locations", "n_raw_points": 1, "lon": 77.574867683393194, "lat": 12.9845070969248, "label": 1 }, "geometry": { "type": "Point", "coordinates": [ 77.574867683393194, 12.9845070969248 ] } },
{ "type": "Feature", "properties": { "name": "Jagajeevan ram nagar", "all_names": "Jagajeevan ram nagar", "sources": "flood_prone_locations", "n_raw_points": 1, "lon": 77.550679183993694, "lat": 12.965588058142199, "label": 1 }, "geometry": { "type": "Point", "coordinates": [ 77.550679183993694, 12.965588058142199 ] } },
{ "type": "Feature", "properties": { "name": "Padarayan pura", "all_names": "Padarayan pura", "sources": "flood_prone_locations", "n_raw_points": 1, "lon": 77.549606470858393, "lat": 12.964562621467598, "label": 1 }, "geometry": { "type": "Point", "coordinates": [ 77.549606470858393, 12.964562621467598 ] } },
{ "type": "Feature", "properties": { "name": "Cotton pete", "all_names": "Cotton pete", "sources": "flood_prone_locations", "n_raw_points": 1, "lon": 77.565446794830095, "lat": 12.966685088945498, "label": 1 }, "geometry": { "type": "Point", "coordinates": [ 77.565446794830095, 12.966685088945498 ] } },
{ "type": "Feature", "properties": { "name": "City Market Area", "all_names": "City Market Area", "sources": "flood_prone_locations", "n_raw_points": 1, "lon": 77.584138143256894, "lat": 12.965264679021502, "label": 1 }, "geometry": { "type": "Point", "coordinates": [ 77.584138143256894, 12.965264679021502 ] } },
{ "type": "Feature", "properties": { "name": "Jayanagar 3rd Block LIC Colony", "all_names": "Jayanagar 3rd Block LIC Colony", "sources": "flood_prone_locations", "n_raw_points": 1, "lon": 77.589530840671912, "lat": 12.9297680655436, "label": 1 }, "geometry": { "type": "Point", "coordinates": [ 77.589530840671912, 12.9297680655436 ] } },
{ "type": "Feature", "properties": { "name": "Krishnappa Garden behind Byrasandra Tank D/s", "all_names": "Krishnappa Garden behind Byrasandra Tank D/s", "sources": "flood_prone_locations", "n_raw_points": 1, "lon": 77.598475616452504, "lat": 12.929943222001901, "label": 1 }, "geometry": { "type": "Point", "coordinates": [ 77.598475616452504, 12.929943222001901 ] } },
{ "type": "Feature", "properties": { "name": "Arekempannahalli Area", "all_names": "Arekempannahalli Area", "sources": "flood_prone_locations", "n_raw_points": 1, "lon": 77.593106606280898, "lat": 12.946265430604898, "label": 1 }, "geometry": { "type": "Point", "coordinates": [ 77.593106606280898, 12.946265430604898 ] } },
{ "type": "Feature", "properties": { "name": "Marehahalli Tank", "all_names": "Marehahalli Tank", "sources": "flood_prone_locations", "n_raw_points": 1, "lon": 77.588436254225797, "lat": 12.9153014272189, "label": 1 }, "geometry": { "type": "Point", "coordinates": [ 77.588436254225797, 12.9153014272189 ] } },
{ "type": "Feature", "properties": { "name": "Bismillanagar – Agencies", "all_names": "Bismillanagar – Agencies", "sources": "flood_prone_locations", "n_raw_points": 1, "lon": 77.602199038151099, "lat": 12.925853394918098, "label": 1 }, "geometry": { "type": "Point", "coordinates": [ 77.602199038151099, 12.925853394918098 ] } },
{ "type": "Feature", "properties": { "name": "Ejipura", "all_names": "Ejipura", "sources": "flood_prone_locations", "n_raw_points": 1, "lon": 77.630820130440298, "lat": 12.938392303161999, "label": 1 }, "geometry": { "type": "Point", "coordinates": [ 77.630820130440298, 12.938392303161999 ] } },
{ "type": "Feature", "properties": { "name": "Koramangala Slum", "all_names": "Koramangala Slum", "sources": "flood_prone_locations", "n_raw_points": 1, "lon": 77.62797420604042, "lat": 12.924817268901601, "label": 1 }, "geometry": { "type": "Point", "coordinates": [ 77.62797420604042, 12.924817268901601 ] } },
{ "type": "Feature", "properties": { "name": "Cholurpalya", "all_names": "Cholurpalya", "sources": "flood_prone_locations", "n_raw_points": 1, "lon": 77.549050659257006, "lat": 12.9720098012112, "label": 1 }, "geometry": { "type": "Point", "coordinates": [ 77.549050659257006, 12.9720098012112 ] } },
{ "type": "Feature", "properties": { "name": "Bapujinagar", "all_names": "Bapujinagar", "sources": "flood_prone_locations", "n_raw_points": 1, "lon": 77.539729297765504, "lat": 12.956770659638101, "label": 1 }, "geometry": { "type": "Point", "coordinates": [ 77.539729297765504, 12.956770659638101 ] } },
{ "type": "Feature", "properties": { "name": "Sanjaya Gandhi Slum Area", "all_names": "Sanjaya Gandhi Slum Area", "sources": "flood_prone_locations", "n_raw_points": 1, "lon": 77.592459029656595, "lat": 12.927233344343101, "label": 1 }, "geometry": { "type": "Point", "coordinates": [ 77.592459029656595, 12.927233344343101 ] } },
{ "type": "Feature", "properties": { "name": "NGV to HSR Layout", "all_names": "NGV to HSR Layout", "sources": "flood_prone_locations", "n_raw_points": 1, "lon": 77.620147289361697, "lat": 12.948554000166698, "label": 1 }, "geometry": { "type": "Point", "coordinates": [ 77.620147289361697, 12.948554000166698 ] } },
{ "type": "Feature", "properties": { "name": "Shanthi Nagar", "all_names": "Shanthi Nagar", "sources": "flood_prone_locations", "n_raw_points": 1, "lon": 77.5932394856098, "lat": 12.954258817190398, "label": 1 }, "geometry": { "type": "Point", "coordinates": [ 77.5932394856098, 12.954258817190398 ] } },
{ "type": "Feature", "properties": { "name": "Vidyapeeta circle", "all_names": "Vidyapeeta circle", "sources": "flood_prone_locations", "n_raw_points": 1, "lon": 77.560866420845002, "lat": 12.933395967549698, "label": 1 }, "geometry": { "type": "Point", "coordinates": [ 77.560866420845002, 12.933395967549698 ] } },
{ "type": "Feature", "properties": { "name": "Srinvas nagar", "all_names": "Srinvas nagar", "sources": "flood_prone_locations", "n_raw_points": 1, "lon": 77.554778194954196, "lat": 12.935582225738898, "label": 1 }, "geometry": { "type": "Point", "coordinates": [ 77.554778194954196, 12.935582225738898 ] } },
{ "type": "Feature", "properties": { "name": "KH Road", "all_names": "KH Road", "sources": "flood_prone_locations", "n_raw_points": 1, "lon": 77.592031967697196, "lat": 12.9554637045861, "label": 1 }, "geometry": { "type": "Point", "coordinates": [ 77.592031967697196, 12.9554637045861 ] } },
{ "type": "Feature", "properties": { "name": "Magadi Police station", "all_names": "Magadi Police station", "sources": "flood_prone_locations", "n_raw_points": 1, "lon": 77.551510092813103, "lat": 12.974490836482802, "label": 1 }, "geometry": { "type": "Point", "coordinates": [ 77.551510092813103, 12.974490836482802 ] } },
{ "type": "Feature", "properties": { "name": "RPC layout", "all_names": "RPC layout", "sources": "flood_prone_locations", "n_raw_points": 1, "lon": 77.5378980802288, "lat": 12.962781777656801, "label": 1 }, "geometry": { "type": "Point", "coordinates": [ 77.5378980802288, 12.962781777656801 ] } },
{ "type": "Feature", "properties": { "name": "Shankarappa Garden Gopalapura", "all_names": "Shankarappa Garden Gopalapura", "sources": "flood_prone_locations", "n_raw_points": 1, "lon": 77.523011050216496, "lat": 12.921671308184202, "label": 1 }, "geometry": { "type": "Point", "coordinates": [ 77.523011050216496, 12.921671308184202 ] } },
{ "type": "Feature", "properties": { "name": "Kamakshipalya Tank Slum Area", "all_names": "Kamakshipalya Tank Slum Area", "sources": "flood_prone_locations", "n_raw_points": 1, "lon": 77.5220423616625, "lat": 12.992806345636197, "label": 1 }, "geometry": { "type": "Point", "coordinates": [ 77.5220423616625, 12.992806345636197 ] } },
{ "type": "Feature", "properties": { "name": "Yeshwanthpur Railway station", "all_names": "Yeshwanthpur Railway station", "sources": "flood_prone_locations", "n_raw_points": 1, "lon": 77.5503772276235, "lat": 13.023776751295898, "label": 1 }, "geometry": { "type": "Point", "coordinates": [ 77.5503772276235, 13.023776751295898 ] } },
{ "type": "Feature", "properties": { "name": "BEML Layout in RR Nagar", "all_names": "BEML Layout in RR Nagar", "sources": "flood_prone_locations", "n_raw_points": 1, "lon": 77.51966060165222, "lat": 12.907735905687399, "label": 1 }, "geometry": { "type": "Point", "coordinates": [ 77.51966060165222, 12.907735905687399 ] } },
{ "type": "Feature", "properties": { "name": "Nayandahalli", "all_names": "Nayandahalli", "sources": "flood_prone_locations", "n_raw_points": 1, "lon": 77.524762389069707, "lat": 12.941092662396301, "label": 1 }, "geometry": { "type": "Point", "coordinates": [ 77.524762389069707, 12.941092662396301 ] } },
{ "type": "Feature", "properties": { "name": "Kengeri Yellamma temple", "all_names": "Kengeri Yellamma temple", "sources": "flood_prone_locations", "n_raw_points": 1, "lon": 77.482735714578695, "lat": 12.898911781153599, "label": 1 }, "geometry": { "type": "Point", "coordinates": [ 77.482735714578695, 12.898911781153599 ] } },
{ "type": "Feature", "properties": { "name": "HAL Airport Road", "all_names": "HAL Airport Road", "sources": "flood_prone_locations", "n_raw_points": 1, "lon": 77.682264012569107, "lat": 12.9545043770751, "label": 1 }, "geometry": { "type": "Point", "coordinates": [ 77.682264012569107, 12.9545043770751 ] } },
{ "type": "Feature", "properties": { "name": "Sulthan Palya Main Road", "all_names": "Sulthan Palya Main Road", "sources": "flood_prone_locations", "n_raw_points": 1, "lon": 77.604783215768805, "lat": 13.029909094329001, "label": 1 }, "geometry": { "type": "Point", "coordinates": [ 77.604783215768805, 13.029909094329001 ] } },
{ "type": "Feature", "properties": { "name": "Pillappa Garden – Agencies", "all_names": "Pillappa Garden – Agencies", "sources": "flood_prone_locations", "n_raw_points": 1, "lon": 77.591177833886121, "lat": 13.025907310873501, "label": 1 }, "geometry": { "type": "Point", "coordinates": [ 77.591177833886121, 13.025907310873501 ] } },
{ "type": "Feature", "properties": { "name": "Anandanagara", "all_names": "Anandanagara", "sources": "flood_prone_locations", "n_raw_points": 1, "lon": 77.591312117056702, "lat": 13.031328290168299, "label": 1 }, "geometry": { "type": "Point", "coordinates": [ 77.591312117056702, 13.031328290168299 ] } },
{ "type": "Feature", "properties": { "name": "Miller Tank,", "all_names": "Miller Tank,", "sources": "flood_prone_locations", "n_raw_points": 1, "lon": 77.598064144240908, "lat": 12.991993796476303, "label": 1 }, "geometry": { "type": "Point", "coordinates": [ 77.598064144240908, 12.991993796476303 ] } },
{ "type": "Feature", "properties": { "name": "Saraswathipuram – Jogu Palya", "all_names": "Saraswathipuram – Jogu Palya", "sources": "flood_prone_locations", "n_raw_points": 1, "lon": 77.632889504642606, "lat": 12.972383224006398, "label": 1 }, "geometry": { "type": "Point", "coordinates": [ 77.632889504642606, 12.972383224006398 ] } },
{ "type": "Feature", "properties": { "name": "K R Garden", "all_names": "K R Garden", "sources": "flood_prone_locations", "n_raw_points": 1, "lon": 77.656156019080399, "lat": 12.9540152394115, "label": 1 }, "geometry": { "type": "Point", "coordinates": [ 77.656156019080399, 12.9540152394115 ] } },
{ "type": "Feature", "properties": { "name": "Rudrappa Garden", "all_names": "Rudrappa Garden", "sources": "flood_prone_locations", "n_raw_points": 1, "lon": 77.617995669460399, "lat": 12.959963743032098, "label": 1 }, "geometry": { "type": "Point", "coordinates": [ 77.617995669460399, 12.959963743032098 ] } },
{ "type": "Feature", "properties": { "name": "TV tower-Jaymahal extension", "all_names": "TV tower-Jaymahal extension", "sources": "flood_prone_locations", "n_raw_points": 1, "lon": 77.591903968089795, "lat": 13.008076919414099, "label": 1 }, "geometry": { "type": "Point", "coordinates": [ 77.591903968089795, 13.008076919414099 ] } },
{ "type": "Feature", "properties": { "name": "hotel Chalukya Junction", "all_names": "hotel Chalukya Junction", "sources": "flood_prone_locations", "n_raw_points": 1, "lon": 77.588161348563503, "lat": 12.9844988501416, "label": 1 }, "geometry": { "type": "Point", "coordinates": [ 77.588161348563503, 12.9844988501416 ] } },
{ "type": "Feature", "properties": { "name": "Dommlur", "all_names": "Dommlur", "sources": "flood_prone_locations", "n_raw_points": 1, "lon": 77.638739052261002, "lat": 12.960933236479397, "label": 1 }, "geometry": { "type": "Point", "coordinates": [ 77.638739052261002, 12.960933236479397 ] } },
{ "type": "Feature", "properties": { "name": "Ulsoor", "all_names": "Ulsoor", "sources": "flood_prone_locations", "n_raw_points": 1, "lon": 77.623967666070698, "lat": 12.9819583642869, "label": 1 }, "geometry": { "type": "Point", "coordinates": [ 77.623967666070698, 12.9819583642869 ] } },
{ "type": "Feature", "properties": { "name": "DJ Halli", "all_names": "DJ Halli", "sources": "flood_prone_locations", "n_raw_points": 1, "lon": 77.610288150373719, "lat": 13.009267539065497, "label": 1 }, "geometry": { "type": "Point", "coordinates": [ 77.610288150373719, 13.009267539065497 ] } },
{ "type": "Feature", "properties": { "name": "KR circle Underpass", "all_names": "KR circle Underpass", "sources": "flood_prone_locations", "n_raw_points": 1, "lon": 77.587323043719607, "lat": 12.9754291432402, "label": 1 }, "geometry": { "type": "Point", "coordinates": [ 77.587323043719607, 12.9754291432402 ] } },
{ "type": "Feature", "properties": { "name": "Ashok Nagar\n,museum road", "all_names": "Ashok Nagar\n,museum road", "sources": "flood_prone_locations", "n_raw_points": 1, "lon": 77.604796602177402, "lat": 12.970775636386298, "label": 1 }, "geometry": { "type": "Point", "coordinates": [ 77.604796602177402, 12.970775636386298 ] } },
{ "type": "Feature", "properties": { "name": "UB city  road", "all_names": "UB city  road", "sources": "flood_prone_locations", "n_raw_points": 1, "lon": 77.596618073960997, "lat": 12.971328789591801, "label": 1 }, "geometry": { "type": "Point", "coordinates": [ 77.596618073960997, 12.971328789591801 ] } },
{ "type": "Feature", "properties": { "name": "New Thippasandra", "all_names": "New Thippasandra", "sources": "flood_prone_locations", "n_raw_points": 1, "lon": 77.654142892076194, "lat": 12.9720323148392, "label": 1 }, "geometry": { "type": "Point", "coordinates": [ 77.654142892076194, 12.9720323148392 ] } },
{ "type": "Feature", "properties": { "name": "Cox town", "all_names": "Cox town", "sources": "flood_prone_locations", "n_raw_points": 1, "lon": 77.623408440642805, "lat": 12.995441611041301, "label": 1 }, "geometry": { "type": "Point", "coordinates": [ 77.623408440642805, 12.995441611041301 ] } },
{ "type": "Feature", "properties": { "name": "Thippasandra", "all_names": "Thippasandra", "sources": "flood_prone_locations", "n_raw_points": 1, "lon": 77.646810919084103, "lat": 12.9737073498141, "label": 1 }, "geometry": { "type": "Point", "coordinates": [ 77.646810919084103, 12.9737073498141 ] } },
{ "type": "Feature", "properties": { "name": "Indiranagar 80ft road", "all_names": "Indiranagar 80ft road", "sources": "flood_prone_locations", "n_raw_points": 1, "lon": 77.647743829009897, "lat": 12.9688733328378, "label": 1 }, "geometry": { "type": "Point", "coordinates": [ 77.647743829009897, 12.9688733328378 ] } },
{ "type": "Feature", "properties": { "name": "Pulakeshinagara", "all_names": "Pulakeshinagara", "sources": "flood_prone_locations", "n_raw_points": 1, "lon": 77.609903634441096, "lat": 12.996840553248703, "label": 1 }, "geometry": { "type": "Point", "coordinates": [ 77.609903634441096, 12.996840553248703 ] } },
{ "type": "Feature", "properties": { "name": "Banaswadi", "all_names": "Banaswadi", "sources": "flood_prone_locations", "n_raw_points": 1, "lon": 77.647128628878605, "lat": 13.011903787429601, "label": 1 }, "geometry": { "type": "Point", "coordinates": [ 77.647128628878605, 13.011903787429601 ] } },
{ "type": "Feature", "properties": { "name": "Sarjapur road", "all_names": "Sarjapur road", "sources": "flood_prone_locations", "n_raw_points": 1, "lon": 77.499379262639806, "lat": 13.006586088077396, "label": 1 }, "geometry": { "type": "Point", "coordinates": [ 77.499379262639806, 13.006586088077396 ] } },
{ "type": "Feature", "properties": { "name": "NGV to HSR Layout", "all_names": "NGV to HSR Layout", "sources": "flood_prone_locations", "n_raw_points": 1, "lon": 77.647667755358, "lat": 12.9067696947654, "label": 1 }, "geometry": { "type": "Point", "coordinates": [ 77.647667755358, 12.9067696947654 ] } },
{ "type": "Feature", "properties": { "name": "Kallena Agrahara in Arekere", "all_names": "Kallena Agrahara in Arekere", "sources": "flood_prone_locations", "n_raw_points": 1, "lon": 77.593502085848598, "lat": 12.870970177931204, "label": 1 }, "geometry": { "type": "Point", "coordinates": [ 77.593502085848598, 12.870970177931204 ] } },
{ "type": "Feature", "properties": { "name": "RR Layout in Arekere & Hulimavu junction", "all_names": "RR Layout in Arekere & Hulimavu junction", "sources": "flood_prone_locations", "n_raw_points": 1, "lon": 77.59658071072721, "lat": 12.8842403779908, "label": 1 }, "geometry": { "type": "Point", "coordinates": [ 77.59658071072721, 12.8842403779908 ] } },
{ "type": "Feature", "properties": { "name": "Gurudarshan Layout,Near Doddabommasandra", "all_names": "Gurudarshan Layout,Near Doddabommasandra", "sources": "lowlying_locations", "n_raw_points": 1, "lon": 77.559324139037699, "lat": 13.071537127142497, "label": 1 }, "geometry": { "type": "Point", "coordinates": [ 77.559324139037699, 13.071537127142497 ] } },
{ "type": "Feature", "properties": { "name": "Devi Nagara", "all_names": "Devi Nagara", "sources": "lowlying_locations", "n_raw_points": 1, "lon": 77.573024633793594, "lat": 13.052072903657496, "label": 1 }, "geometry": { "type": "Point", "coordinates": [ 77.573024633793594, 13.052072903657496 ] } },
{ "type": "Feature", "properties": { "name": "JRD Tata Nagar", "all_names": "JRD Tata Nagar", "sources": "lowlying_locations", "n_raw_points": 1, "lon": 77.573363637154998, "lat": 13.055279078826098, "label": 1 }, "geometry": { "type": "Point", "coordinates": [ 77.573363637154998, 13.055279078826098 ] } },
{ "type": "Feature", "properties": { "name": "Bhadrappa Layout, Nagashettihalli", "all_names": "Bhadrappa Layout, Nagashettihalli", "sources": "lowlying_locations", "n_raw_points": 1, "lon": 77.573960809160894, "lat": 13.048668555350501, "label": 1 }, "geometry": { "type": "Point", "coordinates": [ 77.573960809160894, 13.048668555350501 ] } },
{ "type": "Feature", "properties": { "name": "Someshwara Nagar", "all_names": "Someshwara Nagar", "sources": "lowlying_locations", "n_raw_points": 1, "lon": 77.5792967997007, "lat": 13.0923268027641, "label": 1 }, "geometry": { "type": "Point", "coordinates": [ 77.5792967997007, 13.0923268027641 ] } },
{ "type": "Feature", "properties": { "name": "EWS working colony 3rd stage", "all_names": "EWS working colony 3rd stage", "sources": "lowlying_locations", "n_raw_points": 1, "lon": 77.5824405738244, "lat": 13.093543097692701, "label": 1 }, "geometry": { "type": "Point", "coordinates": [ 77.5824405738244, 13.093543097692701 ] } },
{ "type": "Feature", "properties": { "name": "Attur, Near Dairy Circle", "all_names": "Attur, Near Dairy Circle", "sources": "lowlying_locations", "n_raw_points": 1, "lon": 77.568994648505097, "lat": 13.107284706071001, "label": 1 }, "geometry": { "type": "Point", "coordinates": [ 77.568994648505097, 13.107284706071001 ] } },
{ "type": "Feature", "properties": { "name": "Balaji Layout, Near Tata Nagar", "all_names": "Balaji Layout, Near Tata Nagar", "sources": "lowlying_locations", "n_raw_points": 1, "lon": 77.576471832230993, "lat": 13.05400991038, "label": 1 }, "geometry": { "type": "Point", "coordinates": [ 77.576471832230993, 13.05400991038 ] } },
{ "type": "Feature", "properties": { "name": "Shankrappa Layout,MAruthi nagar", "all_names": "Shankrappa Layout,MAruthi nagar", "sources": "lowlying_locations", "n_raw_points": 1, "lon": 77.605114130345299, "lat": 13.103662125070402, "label": 1 }, "geometry": { "type": "Point", "coordinates": [ 77.605114130345299, 13.103662125070402 ] } },
{ "type": "Feature", "properties": { "name": "Kempapura", "all_names": "Kempapura", "sources": "lowlying_locations", "n_raw_points": 1, "lon": 77.604809652401897, "lat": 13.048485358670797, "label": 1 }, "geometry": { "type": "Point", "coordinates": [ 77.604809652401897, 13.048485358670797 ] } },
{ "type": "Feature", "properties": { "name": "Mariyanna Palya", "all_names": "Mariyanna Palya", "sources": "lowlying_locations", "n_raw_points": 1, "lon": 77.615371904286803, "lat": 13.051318840936901, "label": 1 }, "geometry": { "type": "Point", "coordinates": [ 77.615371904286803, 13.051318840936901 ] } },
{ "type": "Feature", "properties": { "name": "Telecom layout,Ashwathnagar", "all_names": "Telecom layout,Ashwathnagar", "sources": "lowlying_locations", "n_raw_points": 1, "lon": 77.634656223628497, "lat": 13.055843860230301, "label": 1 }, "geometry": { "type": "Point", "coordinates": [ 77.634656223628497, 13.055843860230301 ] } },
{ "type": "Feature", "properties": { "name": "Sanguruvanahalli", "all_names": "Sanguruvanahalli", "sources": "lowlying_locations", "n_raw_points": 1, "lon": 77.540866666672898, "lat": 12.990866666238299, "label": 1 }, "geometry": { "type": "Point", "coordinates": [ 77.540866666672898, 12.990866666238299 ] } },
{ "type": "Feature", "properties": { "name": "8TH CROSS 6TH BLOCK SANKARAPPA GARDEN ,RAJAJINAGAR", "all_names": "8TH CROSS 6TH BLOCK SANKARAPPA GARDEN ,RAJAJINAGAR", "sources": "lowlying_locations", "n_raw_points": 1, "lon": 77.552532629774205, "lat": 12.981399152190797, "label": 1 }, "geometry": { "type": "Point", "coordinates": [ 77.552532629774205, 12.981399152190797 ] } },
{ "type": "Feature", "properties": { "name": "BHAKSHI GARDEN", "all_names": "BHAKSHI GARDEN", "sources": "lowlying_locations", "n_raw_points": 1, "lon": 77.566054909962006, "lat": 12.9684298800879, "label": 1 }, "geometry": { "type": "Point", "coordinates": [ 77.566054909962006, 12.9684298800879 ] } },
{ "type": "Feature", "properties": { "name": "SANJEEVAPPA GARDEN", "all_names": "SANJEEVAPPA GARDEN", "sources": "lowlying_locations", "n_raw_points": 1, "lon": 77.558805318190906, "lat": 13.028223349105399, "label": 1 }, "geometry": { "type": "Point", "coordinates": [ 77.558805318190906, 13.028223349105399 ] } },
{ "type": "Feature", "properties": { "name": "NAGANNA NAGAR,NEAR BINNIY MILL ROAD", "all_names": "NAGANNA NAGAR,NEAR BINNIY MILL ROAD", "sources": "lowlying_locations", "n_raw_points": 1, "lon": 77.568750621859905, "lat": 12.9670968958218, "label": 1 }, "geometry": { "type": "Point", "coordinates": [ 77.568750621859905, 12.9670968958218 ] } },
{ "type": "Feature", "properties": { "name": "KANTEERAVA NAGARA", "all_names": "KANTEERAVA NAGARA", "sources": "lowlying_locations", "n_raw_points": 1, "lon": 77.5415463996097, "lat": 13.019604811579098, "label": 1 }, "geometry": { "type": "Point", "coordinates": [ 77.5415463996097, 13.019604811579098 ] } },
{ "type": "Feature", "properties": { "name": "KAMALANAGAR", "all_names": "KAMALANAGAR", "sources": "lowlying_locations", "n_raw_points": 1, "lon": 77.557861142966502, "lat": 13.0226867408992, "label": 1 }, "geometry": { "type": "Point", "coordinates": [ 77.557861142966502, 13.0226867408992 ] } },
{ "type": "Feature", "properties": { "name": "Gubbanna Layout", "all_names": "12th  cross gubbanalayout industrial area; Gubbanna Layout", "sources": "flood_prone_locations; lowlying_locations", "n_raw_points": 2, "lon": 77.555595933863771, "lat": 12.978956693454876, "label": 1 }, "geometry": { "type": "Point", "coordinates": [ 77.555595933863771, 12.978956693454876 ] } },
{ "type": "Feature", "properties": { "name": "14TH CROSS P&T COLONY,CHOLARPALYA", "all_names": "14TH CROSS P&T COLONY,CHOLARPALYA", "sources": "lowlying_locations", "n_raw_points": 1, "lon": 77.547741030414301, "lat": 12.991323039665202, "label": 1 }, "geometry": { "type": "Point", "coordinates": [ 77.547741030414301, 12.991323039665202 ] } },
{ "type": "Feature", "properties": { "name": "1ST MAIN 8TH CROSS N.R.GARDEN,CHOLARPALYA", "all_names": "1ST MAIN 8TH CROSS N.R.GARDEN,CHOLARPALYA", "sources": "lowlying_locations", "n_raw_points": 1, "lon": 77.543553179275094, "lat": 12.992941072939896, "label": 1 }, "geometry": { "type": "Point", "coordinates": [ 77.543553179275094, 12.992941072939896 ] } },
{ "type": "Feature", "properties": { "name": "MUDALPALYA", "all_names": "MUDALPALYA", "sources": "lowlying_locations", "n_raw_points": 1, "lon": 77.531386889002604, "lat": 13.014326605878999, "label": 1 }, "geometry": { "type": "Point", "coordinates": [ 77.531386889002604, 13.014326605878999 ] } },
{ "type": "Feature", "properties": { "name": "METRO LAYOUT-WARD NO 131,NEAR NAYANDHALLI", "all_names": "METRO LAYOUT-WARD NO 131,NEAR NAYANDHALLI", "sources": "lowlying_locations", "n_raw_points": 1, "lon": 77.530223812323001, "lat": 12.965437419532501, "label": 1 }, "geometry": { "type": "Point", "coordinates": [ 77.530223812323001, 12.965437419532501 ] } },
{ "type": "Feature", "properties": { "name": "bismillanagar", "all_names": "bismillanagar", "sources": "lowlying_locations", "n_raw_points": 1, "lon": 77.603110992666501, "lat": 12.926952083151098, "label": 1 }, "geometry": { "type": "Point", "coordinates": [ 77.603110992666501, 12.926952083151098 ] } },
{ "type": "Feature", "properties": { "name": "rudrappa garden", "all_names": "rudrappa garden", "sources": "lowlying_locations", "n_raw_points": 1, "lon": 77.547571760887195, "lat": 12.9563239937434, "label": 1 }, "geometry": { "type": "Point", "coordinates": [ 77.547571760887195, 12.9563239937434 ] } },
{ "type": "Feature", "properties": { "name": "samrudhinagar", "all_names": "samrudhinagar", "sources": "lowlying_locations", "n_raw_points": 1, "lon": 77.546893152624307, "lat": 12.952624896804599, "label": 1 }, "geometry": { "type": "Point", "coordinates": [ 77.546893152624307, 12.952624896804599 ] } },
{ "type": "Feature", "properties": { "name": "silkboardjunction", "all_names": "silkboardjunction", "sources": "lowlying_locations", "n_raw_points": 1, "lon": 77.559871834417194, "lat": 12.896674199063199, "label": 1 }, "geometry": { "type": "Point", "coordinates": [ 77.559871834417194, 12.896674199063199 ] } },
{ "type": "Feature", "properties": { "name": "SARVABHOUMA NAGAR-WARD NO 131 NAYANDHALLI", "all_names": "SARVABHOUMA NAGAR-WARD NO 131 NAYANDHALLI", "sources": "lowlying_locations", "n_raw_points": 2, "lon": 77.526378600336898, "lat": 12.950778691414902, "label": 1 }, "geometry": { "type": "Point", "coordinates": [ 77.526378600336898, 12.950778691414902 ] } },
{ "type": "Feature", "properties": { "name": "SOMESHWARA COLONY NEAR SILK BOARD JUNCTION", "all_names": "SOMESHWARA COLONY NEAR SILK BOARD JUNCTION", "sources": "lowlying_locations", "n_raw_points": 1, "lon": 77.615996256835601, "lat": 12.915518246791299, "label": 1 }, "geometry": { "type": "Point", "coordinates": [ 77.615996256835601, 12.915518246791299 ] } },
{ "type": "Feature", "properties": { "name": "MARUTHI NAGAR, SANKRAPPA LAYOUT", "all_names": "MARUTHI NAGAR, SANKRAPPA LAYOUT", "sources": "lowlying_locations", "n_raw_points": 1, "lon": 77.628961332382005, "lat": 12.9178430901315, "label": 1 }, "geometry": { "type": "Point", "coordinates": [ 77.628961332382005, 12.9178430901315 ] } },
{ "type": "Feature", "properties": { "name": "Ghali Anjaneya temple road", "all_names": "Ghali Anjaneya temple road; VITTALA NAGAR , NEAR KEMPEGOWDANAGAR", "sources": "flood_prone_locations; lowlying_locations", "n_raw_points": 2, "lon": 77.541787223728946, "lat": 12.95291756750661, "label": 1 }, "geometry": { "type": "Point", "coordinates": [ 77.541787223728946, 12.95291756750661 ] } },
{ "type": "Feature", "properties": { "name": "MARUTHI NAGARA ,NEAR BAPUJI NAGARA", "all_names": "MARUTHI NAGARA ,NEAR BAPUJI NAGARA", "sources": "lowlying_locations", "n_raw_points": 1, "lon": 77.538395591297004, "lat": 12.955496811909898, "label": 1 }, "geometry": { "type": "Point", "coordinates": [ 77.538395591297004, 12.955496811909898 ] } },
{ "type": "Feature", "properties": { "name": "RANGANATHA LAYOUT,BHEL CIRCLE", "all_names": "RANGANATHA LAYOUT,BHEL CIRCLE", "sources": "lowlying_locations", "n_raw_points": 1, "lon": 77.535384383280501, "lat": 12.9475113405221, "label": 1 }, "geometry": { "type": "Point", "coordinates": [ 77.535384383280501, 12.9475113405221 ] } },
{ "type": "Feature", "properties": { "name": "Wilson Garden Area up to Bannerghatta Road", "all_names": "PWD QUARTERS NEAR WISLSON GARDEN; VENKATAREDDY NAGAR,SIDDAPURA; Wilson Garden Area up to Bannerghatta Road", "sources": "flood_prone_locations; lowlying_locations", "n_raw_points": 3, "lon": 77.597216651397289, "lat": 12.948460087601299, "label": 1 }, "geometry": { "type": "Point", "coordinates": [ 77.597216651397289, 12.948460087601299 ] } },
{ "type": "Feature", "properties": { "name": "ASHWINI LAYOUT", "all_names": "ASHWINI LAYOUT", "sources": "lowlying_locations", "n_raw_points": 1, "lon": 77.629189826749794, "lat": 12.940538998435597, "label": 1 }, "geometry": { "type": "Point", "coordinates": [ 77.629189826749794, 12.940538998435597 ] } },
{ "type": "Feature", "properties": { "name": "EJIPURA", "all_names": "EJIPURA", "sources": "lowlying_locations", "n_raw_points": 1, "lon": 77.627296409963293, "lat": 12.943109253414598, "label": 1 }, "geometry": { "type": "Point", "coordinates": [ 77.627296409963293, 12.943109253414598 ] } },
{ "type": "Feature", "properties": { "name": "LAKSHMAN RAO NAGARA", "all_names": "LAKSHMAN RAO NAGARA", "sources": "lowlying_locations", "n_raw_points": 1, "lon": 77.614683345154603, "lat": 12.949079257933597, "label": 1 }, "geometry": { "type": "Point", "coordinates": [ 77.614683345154603, 12.949079257933597 ] } },
{ "type": "Feature", "properties": { "name": "Kengunta,Near Mallathalli", "all_names": "Kengunta,Near Mallathalli", "sources": "lowlying_locations", "n_raw_points": 1, "lon": 77.499259070136006, "lat": 12.959253803511398, "label": 1 }, "geometry": { "type": "Point", "coordinates": [ 77.499259070136006, 12.959253803511398 ] } },
{ "type": "Feature", "properties": { "name": "Sri Hari layout", "all_names": "Sri Hari layout", "sources": "lowlying_locations", "n_raw_points": 1, "lon": 77.494171224428513, "lat": 12.957437999027098, "label": 1 }, "geometry": { "type": "Point", "coordinates": [ 77.494171224428513, 12.957437999027098 ] } },
{ "type": "Feature", "properties": { "name": "Near Vidyanikethan School", "all_names": "Near Vidyanikethan School", "sources": "lowlying_locations", "n_raw_points": 1, "lon": 77.488697531752905, "lat": 12.9560321588592, "label": 1 }, "geometry": { "type": "Point", "coordinates": [ 77.488697531752905, 12.9560321588592 ] } },
{ "type": "Feature", "properties": { "name": "Vinayaka Layout,Near Nagarabhavi", "all_names": "Vinayaka Layout,Near Nagarabhavi", "sources": "lowlying_locations", "n_raw_points": 1, "lon": 77.514889441743307, "lat": 12.964787834978898, "label": 1 }, "geometry": { "type": "Point", "coordinates": [ 77.514889441743307, 12.964787834978898 ] } },
{ "type": "Feature", "properties": { "name": "Bandemata-Near Kengeri", "all_names": "Bandemata-Near Kengeri", "sources": "lowlying_locations", "n_raw_points": 1, "lon": 77.488521661969699, "lat": 12.913138256642497, "label": 1 }, "geometry": { "type": "Point", "coordinates": [ 77.488521661969699, 12.913138256642497 ] } },
{ "type": "Feature", "properties": { "name": "Janapriya Apartments,Near Rajarajeshwari Temple", "all_names": "Janapriya Apartments,Near Rajarajeshwari Temple", "sources": "lowlying_locations", "n_raw_points": 1, "lon": 77.508905156025804, "lat": 12.927632845385299, "label": 1 }, "geometry": { "type": "Point", "coordinates": [ 77.508905156025804, 12.927632845385299 ] } },
{ "type": "Feature", "properties": { "name": "Kenchenahalli", "all_names": "Kenchenahalli", "sources": "lowlying_locations", "n_raw_points": 1, "lon": 77.509445324012503, "lat": 12.930472335658099, "label": 1 }, "geometry": { "type": "Point", "coordinates": [ 77.509445324012503, 12.930472335658099 ] } },
{ "type": "Feature", "properties": { "name": "Shivanna Layout,Near Halagevaddarahalli", "all_names": "Shivanna Layout,Near Halagevaddarahalli", "sources": "lowlying_locations", "n_raw_points": 1, "lon": 77.519020106599712, "lat": 12.920464360105699, "label": 1 }, "geometry": { "type": "Point", "coordinates": [ 77.519020106599712, 12.920464360105699 ] } },
{ "type": "Feature", "properties": { "name": "Brindavananagar below Matthikere Tank Market", "all_names": "BRINDAVAN NAGAR; Brindavananagar below Matthikere Tank Market", "sources": "flood_prone_locations; lowlying_locations", "n_raw_points": 2, "lon": 77.554864478092455, "lat": 13.034717103885091, "label": 1 }, "geometry": { "type": "Point", "coordinates": [ 77.554864478092455, 13.034717103885091 ] } },
{ "type": "Feature", "properties": { "name": "CHICKKABIDRIKAL", "all_names": "CHICKKABIDRIKAL", "sources": "lowlying_locations", "n_raw_points": 1, "lon": 77.490517431765696, "lat": 13.044565635845599, "label": 1 }, "geometry": { "type": "Point", "coordinates": [ 77.490517431765696, 13.044565635845599 ] } },
{ "type": "Feature", "properties": { "name": "ANJANA NAGARA ,NEAR ANJANEYA TEMPLE (WARD NO 72)", "all_names": "ANJANA NAGARA ,NEAR ANJANEYA TEMPLE (WARD NO 72)", "sources": "lowlying_locations", "n_raw_points": 1, "lon": 77.481958955928604, "lat": 12.988674025260503, "label": 1 }, "geometry": { "type": "Point", "coordinates": [ 77.481958955928604, 12.988674025260503 ] } },
{ "type": "Feature", "properties": { "name": "BYRAVESHWARA NAGARA , HAGGANAHALLI", "all_names": "BYRAVESHWARA NAGARA , HAGGANAHALLI", "sources": "lowlying_locations", "n_raw_points": 1, "lon": 77.504201420463303, "lat": 12.989321600860301, "label": 1 }, "geometry": { "type": "Point", "coordinates": [ 77.504201420463303, 12.989321600860301 ] } },
{ "type": "Feature", "properties": { "name": "CHOWDESHWARINAGAR,RAJIV GANDHI CIRCLE ,LAGGERE", "all_names": "CHOWDESHWARINAGAR,RAJIV GANDHI CIRCLE ,LAGGERE", "sources": "lowlying_locations", "n_raw_points": 1, "lon": 77.526952374039297, "lat": 13.009710693231801, "label": 1 }, "geometry": { "type": "Point", "coordinates": [ 77.526952374039297, 13.009710693231801 ] } },
{ "type": "Feature", "properties": { "name": "KALIKA NAGARA MAIN ROAD (WARD NO 41)", "all_names": "KALIKA NAGARA MAIN ROAD (WARD NO 41)", "sources": "lowlying_locations", "n_raw_points": 1, "lon": 77.491958419731901, "lat": 13.009936436911499, "label": 1 }, "geometry": { "type": "Point", "coordinates": [ 77.491958419731901, 13.009936436911499 ] } },
{ "type": "Feature", "properties": { "name": "KOTTIGEPALYA", "all_names": "KOTTIGEPALYA", "sources": "lowlying_locations", "n_raw_points": 1, "lon": 77.512041887261702, "lat": 12.985970323091896, "label": 1 }, "geometry": { "type": "Point", "coordinates": [ 77.512041887261702, 12.985970323091896 ] } },
{ "type": "Feature", "properties": { "name": "RUKMINI NAGARA NEAR MAGADI ROAD (WARD NO 73)", "all_names": "RUKMINI NAGARA NEAR MAGADI ROAD (WARD NO 73)", "sources": "lowlying_locations", "n_raw_points": 1, "lon": 77.493881338429404, "lat": 13.041586339077696, "label": 1 }, "geometry": { "type": "Point", "coordinates": [ 77.493881338429404, 13.041586339077696 ] } },
{ "type": "Feature", "properties": { "name": "SHIVANANDANAGARA", "all_names": "SHIVANANDANAGARA", "sources": "lowlying_locations", "n_raw_points": 1, "lon": 77.495142353978196, "lat": 13.006781294381097, "label": 1 }, "geometry": { "type": "Point", "coordinates": [ 77.495142353978196, 13.006781294381097 ] } },
{ "type": "Feature", "properties": { "name": "KALLAPA LAYOUT NEAR BASAVANAGARA", "all_names": "KALLAPA LAYOUT NEAR BASAVANAGARA", "sources": "lowlying_locations", "n_raw_points": 1, "lon": 77.686900149110002, "lat": 12.967840139801098, "label": 1 }, "geometry": { "type": "Point", "coordinates": [ 77.686900149110002, 12.967840139801098 ] } },
{ "type": "Feature", "properties": { "name": "TALA KAVERI LAYOUT NEAR HAL AIRPORT", "all_names": "TALA KAVERI LAYOUT NEAR HAL AIRPORT", "sources": "lowlying_locations", "n_raw_points": 1, "lon": 77.686207715508303, "lat": 12.9604936418399, "label": 1 }, "geometry": { "type": "Point", "coordinates": [ 77.686207715508303, 12.9604936418399 ] } },
{ "type": "Feature", "properties": { "name": "SJR DENTAL COLLEGE MAIN ROAD", "all_names": "SJR DENTAL COLLEGE MAIN ROAD", "sources": "lowlying_locations", "n_raw_points": 1, "lon": 77.703029058720205, "lat": 12.948995700582001, "label": 1 }, "geometry": { "type": "Point", "coordinates": [ 77.703029058720205, 12.948995700582001 ] } },
{ "type": "Feature", "properties": { "name": "GANDHIPURAM NEAR WHITE FIELD", "all_names": "GANDHIPURAM NEAR WHITE FIELD", "sources": "lowlying_locations", "n_raw_points": 1, "lon": 77.755935347879102, "lat": 12.971315568983698, "label": 1 }, "geometry": { "type": "Point", "coordinates": [ 77.755935347879102, 12.971315568983698 ] } },
{ "type": "Feature", "properties": { "name": "UDAYANAGARA NEAR A NARAYANPURA", "all_names": "UDAYANAGARA NEAR A NARAYANPURA", "sources": "lowlying_locations", "n_raw_points": 1, "lon": 77.675598641853597, "lat": 12.990081478343598, "label": 1 }, "geometry": { "type": "Point", "coordinates": [ 77.675598641853597, 12.990081478343598 ] } },
{ "type": "Feature", "properties": { "name": "PAI LAYOUT", "all_names": "PAI LAYOUT", "sources": "lowlying_locations", "n_raw_points": 1, "lon": 77.668828835088803, "lat": 12.9914150366501, "label": 1 }, "geometry": { "type": "Point", "coordinates": [ 77.668828835088803, 12.9914150366501 ] } },
{ "type": "Feature", "properties": { "name": "CHINAPPA LAYOUT", "all_names": "CHINAPPA LAYOUT", "sources": "lowlying_locations", "n_raw_points": 1, "lon": 77.685587079091306, "lat": 12.9853658544149, "label": 1 }, "geometry": { "type": "Point", "coordinates": [ 77.685587079091306, 12.9853658544149 ] } },
{ "type": "Feature", "properties": { "name": "GARUDACHARPLAYA BASAVANAGARA", "all_names": "GARUDACHARPLAYA BASAVANAGARA", "sources": "lowlying_locations", "n_raw_points": 1, "lon": 77.719486548559502, "lat": 12.986617768005798, "label": 1 }, "geometry": { "type": "Point", "coordinates": [ 77.719486548559502, 12.986617768005798 ] } },
{ "type": "Feature", "properties": { "name": "PASTTANDUR AGRAHARA NEAR ITPL", "all_names": "PASTTANDUR AGRAHARA NEAR ITPL", "sources": "lowlying_locations", "n_raw_points": 1, "lon": 77.735076680812298, "lat": 12.9749466444273, "label": 1 }, "geometry": { "type": "Point", "coordinates": [ 77.735076680812298, 12.9749466444273 ] } },
{ "type": "Feature", "properties": { "name": "SAI BABA ASHRAM KADUGODI", "all_names": "SAI BABA ASHRAM KADUGODI", "sources": "lowlying_locations", "n_raw_points": 1, "lon": 77.754158616521295, "lat": 13.001553894267799, "label": 1 }, "geometry": { "type": "Point", "coordinates": [ 77.754158616521295, 13.001553894267799 ] } },
{ "type": "Feature", "properties": { "name": "PATTALAMMA LAYOUT NEAR KADUGODI", "all_names": "PATTALAMMA LAYOUT NEAR KADUGODI", "sources": "lowlying_locations", "n_raw_points": 1, "lon": 77.759073302357706, "lat": 12.998828546264299, "label": 1 }, "geometry": { "type": "Point", "coordinates": [ 77.759073302357706, 12.998828546264299 ] } },
{ "type": "Feature", "properties": { "name": "SIDDHARTHA LAYOUT KADUGODI", "all_names": "SIDDHARTHA LAYOUT KADUGODI", "sources": "lowlying_locations", "n_raw_points": 1, "lon": 77.763191917918718, "lat": 12.997006631756701, "label": 1 }, "geometry": { "type": "Point", "coordinates": [ 77.763191917918718, 12.997006631756701 ] } },
{ "type": "Feature", "properties": { "name": "TRIVENI NAGAR NEAR KR PURAM", "all_names": "TRIVENI NAGAR NEAR KR PURAM", "sources": "lowlying_locations", "n_raw_points": 1, "lon": 77.719902214240918, "lat": 13.023151384561, "label": 1 }, "geometry": { "type": "Point", "coordinates": [ 77.719902214240918, 13.023151384561 ] } },
{ "type": "Feature", "properties": { "name": "KRISHNANAGARA , NEAR CHIKKADEVSANDRA", "all_names": "KRISHNANAGARA , NEAR CHIKKADEVSANDRA", "sources": "lowlying_locations", "n_raw_points": 1, "lon": 77.706548046250106, "lat": 13.005344222990198, "label": 1 }, "geometry": { "type": "Point", "coordinates": [ 77.706548046250106, 13.005344222990198 ] } },
{ "type": "Feature", "properties": { "name": "VINAYAKA LAYOUT NEAR BASAVANAPURA MAIN ROAD", "all_names": "VINAYAKA LAYOUT NEAR BASAVANAPURA MAIN ROAD", "sources": "lowlying_locations", "n_raw_points": 1, "lon": 77.706673009424705, "lat": 13.014299339871901, "label": 1 }, "geometry": { "type": "Point", "coordinates": [ 77.706673009424705, 13.014299339871901 ] } },
{ "type": "Feature", "properties": { "name": "HOYSALANAGARA KR PURA", "all_names": "HOYSALANAGARA KR PURA", "sources": "lowlying_locations", "n_raw_points": 1, "lon": 77.665983134645415, "lat": 13.017243423793799, "label": 1 }, "geometry": { "type": "Point", "coordinates": [ 77.665983134645415, 13.017243423793799 ] } },
{ "type": "Feature", "properties": { "name": "Bhovi Colony, near Sane Guruvanahalli Tank", "all_names": "Bhovi Colony, near Sane Guruvanahalli Tank; RR LAYOUT  NEAR VIJNANAPURA", "sources": "flood_prone_locations; lowlying_locations", "n_raw_points": 2, "lon": 77.676007984064995, "lat": 13.011799264052463, "label": 1 }, "geometry": { "type": "Point", "coordinates": [ 77.676007984064995, 13.011799264052463 ] } },
{ "type": "Feature", "properties": { "name": "DR AMBEDKAR NAGAR NEAR VIJNANAPURA", "all_names": "DR AMBEDKAR NAGAR NEAR VIJNANAPURA", "sources": "lowlying_locations", "n_raw_points": 1, "lon": 77.686648776466896, "lat": 13.015196415272298, "label": 1 }, "geometry": { "type": "Point", "coordinates": [ 77.686648776466896, 13.015196415272298 ] } },
{ "type": "Feature", "properties": { "name": "ABBAREDDY LAYOUT ,VIJNANA NAGARA", "all_names": "ABBAREDDY LAYOUT ,VIJNANA NAGARA", "sources": "lowlying_locations", "n_raw_points": 1, "lon": 77.680829046928906, "lat": 12.980352626814499, "label": 1 }, "geometry": { "type": "Point", "coordinates": [ 77.680829046928906, 12.980352626814499 ] } },
{ "type": "Feature", "properties": { "name": "Vaddara palya, Near Hennur Bande", "all_names": "Vaddara palya, Near Hennur Bande", "sources": "lowlying_locations", "n_raw_points": 1, "lon": 77.644374108978596, "lat": 13.040109608307999, "label": 1 }, "geometry": { "type": "Point", "coordinates": [ 77.644374108978596, 13.040109608307999 ] } },
{ "type": "Feature", "properties": { "name": "BHUVANESHWARI NAGARA WARD NO 15", "all_names": "BHUVANESHWARI NAGARA WARD NO 15", "sources": "lowlying_locations", "n_raw_points": 1, "lon": 77.507981946121603, "lat": 13.0429792423788, "label": 1 }, "geometry": { "type": "Point", "coordinates": [ 77.507981946121603, 13.0429792423788 ] } },
{ "type": "Feature", "properties": { "name": "BAGALKUNTE( L NARSIMHAYA LAYOUT)", "all_names": "BAGALKUNTE( L NARSIMHAYA LAYOUT)", "sources": "lowlying_locations", "n_raw_points": 1, "lon": 77.503016663833506, "lat": 13.064250830695499, "label": 1 }, "geometry": { "type": "Point", "coordinates": [ 77.503016663833506, 13.064250830695499 ] } },
{ "type": "Feature", "properties": { "name": "KEMPEGOWDANAGAR", "all_names": "KEMPEGOWDANAGAR", "sources": "lowlying_locations", "n_raw_points": 1, "lon": 77.510645550968903, "lat": 13.045111735545296, "label": 1 }, "geometry": { "type": "Point", "coordinates": [ 77.510645550968903, 13.045111735545296 ] } },
{ "type": "Feature", "properties": { "name": "NELEGADARANAHALLI", "all_names": "NELEGADARANAHALLI", "sources": "lowlying_locations", "n_raw_points": 1, "lon": 77.502142280244911, "lat": 13.033631528993396, "label": 1 }, "geometry": { "type": "Point", "coordinates": [ 77.502142280244911, 13.033631528993396 ] } },
{ "type": "Feature", "properties": { "name": "SHIVAPURA KERE NEAR NTTF", "all_names": "SHIVAPURA KERE NEAR NTTF", "sources": "lowlying_locations", "n_raw_points": 1, "lon": 77.5058579547525, "lat": 13.026011158572098, "label": 1 }, "geometry": { "type": "Point", "coordinates": [ 77.5058579547525, 13.026011158572098 ] } },
{ "type": "Feature", "properties": { "name": "SHAMPURA SLUM", "all_names": "SHAMPURA SLUM", "sources": "lowlying_locations", "n_raw_points": 1, "lon": 77.613497324995294, "lat": 13.022820847532101, "label": 1 }, "geometry": { "type": "Point", "coordinates": [ 77.613497324995294, 13.022820847532101 ] } },
{ "type": "Feature", "properties": { "name": "BASAVANNA NAGARA NEAR KADUGODANAHALLI", "all_names": "BASAVANNA NAGARA NEAR KADUGODANAHALLI", "sources": "lowlying_locations", "n_raw_points": 1, "lon": 77.619731194629011, "lat": 13.0197394058802, "label": 1 }, "geometry": { "type": "Point", "coordinates": [ 77.619731194629011, 13.0197394058802 ] } },
{ "type": "Feature", "properties": { "name": "THAMMANA LAYOUT NEAR LINGARAJAPURA,", "all_names": "THAMMANA LAYOUT NEAR LINGARAJAPURA,", "sources": "lowlying_locations", "n_raw_points": 1, "lon": 77.6287575718124, "lat": 13.009947229916099, "label": 1 }, "geometry": { "type": "Point", "coordinates": [ 77.6287575718124, 13.009947229916099 ] } },
{ "type": "Feature", "properties": { "name": "MUNIREDDY PALYA", "all_names": "MUNIREDDY PALYA", "sources": "lowlying_locations", "n_raw_points": 1, "lon": 77.601025725713697, "lat": 13.007064902517598, "label": 1 }, "geometry": { "type": "Point", "coordinates": [ 77.601025725713697, 13.007064902517598 ] } },
{ "type": "Feature", "properties": { "name": "Miller Tank,  Chinnappa Garden", "all_names": "CHINAPPA GARDEN; Miller Tank,  Chinnappa Garden", "sources": "flood_prone_locations; lowlying_locations", "n_raw_points": 2, "lon": 77.60278593742683, "lat": 13.002586572513453, "label": 1 }, "geometry": { "type": "Point", "coordinates": [ 77.60278593742683, 13.002586572513453 ] } },
{ "type": "Feature", "properties": { "name": "AMBEDKAR NAGAR NEAR BYAPPANAHALLI", "all_names": "AMBEDKAR NAGAR NEAR BYAPPANAHALLI", "sources": "lowlying_locations", "n_raw_points": 1, "lon": 77.640502261868903, "lat": 12.988098619485399, "label": 1 }, "geometry": { "type": "Point", "coordinates": [ 77.640502261868903, 12.988098619485399 ] } },
{ "type": "Feature", "properties": { "name": "BANDAPPA COLONY , NEAR NEW BYAPPANAHALLI", "all_names": "BANDAPPA COLONY , NEAR NEW BYAPPANAHALLI", "sources": "lowlying_locations", "n_raw_points": 1, "lon": 77.640678815590405, "lat": 12.9843178984092, "label": 1 }, "geometry": { "type": "Point", "coordinates": [ 77.640678815590405, 12.9843178984092 ] } },
{ "type": "Feature", "properties": { "name": "CAMBRIDGE LAYOUT", "all_names": "CAMBRIDGE LAYOUT", "sources": "lowlying_locations", "n_raw_points": 1, "lon": 77.626670083354199, "lat": 12.973290375818298, "label": 1 }, "geometry": { "type": "Point", "coordinates": [ 77.626670083354199, 12.973290375818298 ] } },
{ "type": "Feature", "properties": { "name": "BHARATHI NAGARA", "all_names": "BHARATHI NAGARA", "sources": "lowlying_locations", "n_raw_points": 1, "lon": 77.6114142619749, "lat": 12.987921345088099, "label": 1 }, "geometry": { "type": "Point", "coordinates": [ 77.6114142619749, 12.987921345088099 ] } },
{ "type": "Feature", "properties": { "name": "RAJIV GANDHI COLONY ,NEAR QUEENS ROAD", "all_names": "RAJIV GANDHI COLONY ,NEAR QUEENS ROAD", "sources": "lowlying_locations", "n_raw_points": 1, "lon": 77.601205664691705, "lat": 12.989231590817703, "label": 1 }, "geometry": { "type": "Point", "coordinates": [ 77.601205664691705, 12.989231590817703 ] } },
{ "type": "Feature", "properties": { "name": "MURUGESHPALYA", "all_names": "MURUGESHPALYA", "sources": "lowlying_locations", "n_raw_points": 1, "lon": 77.655991741457498, "lat": 12.956135229109099, "label": 1 }, "geometry": { "type": "Point", "coordinates": [ 77.655991741457498, 12.956135229109099 ] } },
{ "type": "Feature", "properties": { "name": "SRINIVAGILU TANK BED LAYOUT", "all_names": "SRINIVAGILU TANK BED LAYOUT", "sources": "lowlying_locations", "n_raw_points": 1, "lon": 77.636725906229998, "lat": 12.936238312411399, "label": 1 }, "geometry": { "type": "Point", "coordinates": [ 77.636725906229998, 12.936238312411399 ] } },
{ "type": "Feature", "properties": { "name": "SHANTHI NAGARA", "all_names": "SHANTHI NAGARA", "sources": "lowlying_locations", "n_raw_points": 1, "lon": 77.599550745068598, "lat": 12.956486085778302, "label": 1 }, "geometry": { "type": "Point", "coordinates": [ 77.599550745068598, 12.956486085778302 ] } },
{ "type": "Feature", "properties": { "name": "SAMPANGI RAMA NAGARA", "all_names": "SAMPANGI RAMA NAGARA", "sources": "lowlying_locations", "n_raw_points": 1, "lon": 77.592226395397702, "lat": 12.972938678416902, "label": 1 }, "geometry": { "type": "Point", "coordinates": [ 77.592226395397702, 12.972938678416902 ] } },
{ "type": "Feature", "properties": { "name": "SEETHAPPA LAYOUT NEAR RABINDRANATH TAGORE LAYOUT", "all_names": "SEETHAPPA LAYOUT NEAR RABINDRANATH TAGORE LAYOUT", "sources": "lowlying_locations", "n_raw_points": 1, "lon": 77.603767155901494, "lat": 13.033871941376701, "label": 1 }, "geometry": { "type": "Point", "coordinates": [ 77.603767155901494, 13.033871941376701 ] } },
{ "type": "Feature", "properties": { "name": "BAMBOO BAZAR", "all_names": "BAMBOO BAZAR", "sources": "lowlying_locations", "n_raw_points": 1, "lon": 77.603823881238597, "lat": 12.9926509102014, "label": 1 }, "geometry": { "type": "Point", "coordinates": [ 77.603823881238597, 12.9926509102014 ] } },
{ "type": "Feature", "properties": { "name": "munireddypalya anekappa block", "all_names": "munireddypalya anekappa block", "sources": "lowlying_locations", "n_raw_points": 1, "lon": 77.594438548295201, "lat": 13.0131255526489, "label": 1 }, "geometry": { "type": "Point", "coordinates": [ 77.594438548295201, 13.0131255526489 ] } },
{ "type": "Feature", "properties": { "name": "SHANKAR NAGAR", "all_names": "SHANKAR NAGAR", "sources": "lowlying_locations", "n_raw_points": 1, "lon": 77.571187084279501, "lat": 13.0311184601201, "label": 1 }, "geometry": { "type": "Point", "coordinates": [ 77.571187084279501, 13.0311184601201 ] } },
{ "type": "Feature", "properties": { "name": "Govindapura,Nesar Nagavara", "all_names": "Govindapura,Nesar Nagavara", "sources": "lowlying_locations", "n_raw_points": 1, "lon": 77.615024700603101, "lat": 13.033683630564699, "label": 1 }, "geometry": { "type": "Point", "coordinates": [ 77.615024700603101, 13.033683630564699 ] } },
{ "type": "Feature", "properties": { "name": "ILLIYAS NAGAR KUMARSWAMY LAYOUT", "all_names": "ILLIYAS NAGAR KUMARSWAMY LAYOUT", "sources": "lowlying_locations", "n_raw_points": 1, "lon": 77.569785576924403, "lat": 12.905829613173696, "label": 1 }, "geometry": { "type": "Point", "coordinates": [ 77.569785576924403, 12.905829613173696 ] } },
{ "type": "Feature", "properties": { "name": "MUNISUBBAREDDY LAYOUT HONGASANDRA", "all_names": "MUNISUBBAREDDY LAYOUT HONGASANDRA", "sources": "lowlying_locations", "n_raw_points": 1, "lon": 77.628469789483802, "lat": 12.898933687336601, "label": 1 }, "geometry": { "type": "Point", "coordinates": [ 77.628469789483802, 12.898933687336601 ] } },
{ "type": "Feature", "properties": { "name": "AMBEDKAR COLONY NEAR HONGASANDRA", "all_names": "AMBEDKAR COLONY NEAR HONGASANDRA", "sources": "lowlying_locations", "n_raw_points": 1, "lon": 77.628146899160896, "lat": 12.892686607446999, "label": 1 }, "geometry": { "type": "Point", "coordinates": [ 77.628146899160896, 12.892686607446999 ] } },
{ "type": "Feature", "properties": { "name": "MICO LAYOUT", "all_names": "MICO LAYOUT", "sources": "lowlying_locations", "n_raw_points": 1, "lon": 77.626956138341797, "lat": 12.887502662660998, "label": 1 }, "geometry": { "type": "Point", "coordinates": [ 77.626956138341797, 12.887502662660998 ] } },
{ "type": "Feature", "properties": { "name": "ROYQAL MERIDIAN LAYOUT", "all_names": "ROYQAL MERIDIAN LAYOUT", "sources": "lowlying_locations", "n_raw_points": 1, "lon": 77.624363024522395, "lat": 12.887586246481098, "label": 1 }, "geometry": { "type": "Point", "coordinates": [ 77.624363024522395, 12.887586246481098 ] } },
{ "type": "Feature", "properties": { "name": "VISHWA PRIYA NAGARA NEAR BEGUR MAIN RAOD", "all_names": "VISHWA PRIYA NAGARA NEAR BEGUR MAIN RAOD", "sources": "lowlying_locations", "n_raw_points": 1, "lon": 77.629051177654603, "lat": 12.882050543411101, "label": 1 }, "geometry": { "type": "Point", "coordinates": [ 77.629051177654603, 12.882050543411101 ] } },
{ "type": "Feature", "properties": { "name": "BEGUR KERE AREA", "all_names": "BEGUR KERE AREA", "sources": "lowlying_locations", "n_raw_points": 1, "lon": 77.624941297315999, "lat": 12.876404616001301, "label": 1 }, "geometry": { "type": "Point", "coordinates": [ 77.624941297315999, 12.876404616001301 ] } },
{ "type": "Feature", "properties": { "name": "SUBASH NAGARA", "all_names": "SUBASH NAGARA", "sources": "lowlying_locations", "n_raw_points": 1, "lon": 77.639540823058297, "lat": 12.8698824764384, "label": 1 }, "geometry": { "type": "Point", "coordinates": [ 77.639540823058297, 12.8698824764384 ] } },
{ "type": "Feature", "properties": { "name": "GARVE BHAVI PALYA", "all_names": "GARVE BHAVI PALYA", "sources": "lowlying_locations", "n_raw_points": 1, "lon": 77.637980096622002, "lat": 12.894440715310202, "label": 1 }, "geometry": { "type": "Point", "coordinates": [ 77.637980096622002, 12.894440715310202 ] } },
{ "type": "Feature", "properties": { "name": "PARAPPAN AGRAHARA", "all_names": "PARAPPAN AGRAHARA", "sources": "lowlying_locations", "n_raw_points": 1, "lon": 77.661158567319802, "lat": 12.880294295714, "label": 1 }, "geometry": { "type": "Point", "coordinates": [ 77.661158567319802, 12.880294295714 ] } },
{ "type": "Feature", "properties": { "name": "G K LAYOUT", "all_names": "G K LAYOUT", "sources": "lowlying_locations", "n_raw_points": 1, "lon": 77.660326803985896, "lat": 12.8736972746511, "label": 1 }, "geometry": { "type": "Point", "coordinates": [ 77.660326803985896, 12.8736972746511 ] } },
{ "type": "Feature", "properties": { "name": "KUDLU VILLAGE", "all_names": "KUDLU VILLAGE", "sources": "lowlying_locations", "n_raw_points": 1, "lon": 77.657503815388694, "lat": 12.889426773220499, "label": 1 }, "geometry": { "type": "Point", "coordinates": [ 77.657503815388694, 12.889426773220499 ] } },
{ "type": "Feature", "properties": { "name": "B.T.R GARDEN LAYOUT", "all_names": "B.T.R GARDEN LAYOUT", "sources": "lowlying_locations", "n_raw_points": 1, "lon": 77.642363918138599, "lat": 12.888511802898797, "label": 1 }, "geometry": { "type": "Point", "coordinates": [ 77.642363918138599, 12.888511802898797 ] } },
{ "type": "Feature", "properties": { "name": "RAGHAVENDRA SLUM NEAR LAKSHMI LAYOUT", "all_names": "RAGHAVENDRA SLUM NEAR LAKSHMI LAYOUT", "sources": "lowlying_locations", "n_raw_points": 1, "lon": 77.631708269580997, "lat": 12.890725516129999, "label": 1 }, "geometry": { "type": "Point", "coordinates": [ 77.631708269580997, 12.890725516129999 ] } },
{ "type": "Feature", "properties": { "name": "MUNIREDDY LAYOUT NEAR MANGAMMNAPALYA", "all_names": "MUNIREDDY LAYOUT NEAR MANGAMMNAPALYA", "sources": "lowlying_locations", "n_raw_points": 1, "lon": 77.637142170666706, "lat": 12.905056828351002, "label": 1 }, "geometry": { "type": "Point", "coordinates": [ 77.637142170666706, 12.905056828351002 ] } },
{ "type": "Feature", "properties": { "name": "VYSHYA BANK COLONY NEAR AREKERE", "all_names": "VYSHYA BANK COLONY NEAR AREKERE", "sources": "lowlying_locations", "n_raw_points": 1, "lon": 77.604285023018903, "lat": 12.883349861498898, "label": 1 }, "geometry": { "type": "Point", "coordinates": [ 77.604285023018903, 12.883349861498898 ] } },
{ "type": "Feature", "properties": { "name": "KRISHNA LAYOUT NEAR HULIMAVU KERE", "all_names": "KRISHNA LAYOUT NEAR HULIMAVU KERE", "sources": "lowlying_locations", "n_raw_points": 1, "lon": 77.605805171246004, "lat": 12.877821657311296, "label": 1 }, "geometry": { "type": "Point", "coordinates": [ 77.605805171246004, 12.877821657311296 ] } },
{ "type": "Feature", "properties": { "name": "BDA LAYOUT", "all_names": "BDA LAYOUT", "sources": "lowlying_locations", "n_raw_points": 1, "lon": 77.591492184158398, "lat": 12.857844268061402, "label": 1 }, "geometry": { "type": "Point", "coordinates": [ 77.591492184158398, 12.857844268061402 ] } },
{ "type": "Feature", "properties": { "name": "PUTTENHALLI", "all_names": "PUTTENHALLI", "sources": "lowlying_locations", "n_raw_points": 1, "lon": 77.584920145866704, "lat": 12.901191544086901, "label": 1 }, "geometry": { "type": "Point", "coordinates": [ 77.584920145866704, 12.901191544086901 ] } },
{ "type": "Feature", "properties": { "name": "ASHTA LAKSHMI LAYOUT ,PUTTENHALLI", "all_names": "ASHTA LAKSHMI LAYOUT ,PUTTENHALLI", "sources": "lowlying_locations", "n_raw_points": 1, "lon": 77.586612457770499, "lat": 12.901838949214998, "label": 1 }, "geometry": { "type": "Point", "coordinates": [ 77.586612457770499, 12.901838949214998 ] } },
{ "type": "Feature", "properties": { "name": "GANAPATHPURA NEAR CHUNCHANGHATTA MAIN RAOD", "all_names": "GANAPATHPURA NEAR CHUNCHANGHATTA MAIN RAOD", "sources": "lowlying_locations", "n_raw_points": 1, "lon": 77.570390408456205, "lat": 12.886308353585298, "label": 1 }, "geometry": { "type": "Point", "coordinates": [ 77.570390408456205, 12.886308353585298 ] } },
{ "type": "Feature", "properties": { "name": "HARI NAGAR NEAR KONANKUNTTE", "all_names": "HARI NAGAR NEAR KONANKUNTTE", "sources": "lowlying_locations", "n_raw_points": 1, "lon": 77.575201100645316, "lat": 12.8832966341697, "label": 1 }, "geometry": { "type": "Point", "coordinates": [ 77.575201100645316, 12.8832966341697 ] } },
{ "type": "Feature", "properties": { "name": "VITTAL NAGAR NEAR ISRO LAYOUT,UTTARAHALLI", "all_names": "VITTAL NAGAR NEAR ISRO LAYOUT,UTTARAHALLI", "sources": "lowlying_locations", "n_raw_points": 1, "lon": 77.553864852539107, "lat": 12.902625234870598, "label": 1 }, "geometry": { "type": "Point", "coordinates": [ 77.553864852539107, 12.902625234870598 ] } },
{ "type": "Feature", "properties": { "name": "sanjaynagar", "all_names": "sanjaynagar", "sources": "lowlying_locations", "n_raw_points": 1, "lon": 77.545009325034698, "lat": 12.9178341662909, "label": 1 }, "geometry": { "type": "Point", "coordinates": [ 77.545009325034698, 12.9178341662909 ] } },
{ "type": "Feature", "properties": { "name": "Yelechenahalli", "all_names": "Yelechenahalli", "sources": "lowlying_locations", "n_raw_points": 1, "lon": 77.571272186480201, "lat": 12.905650841720702, "label": 1 }, "geometry": { "type": "Point", "coordinates": [ 77.571272186480201, 12.905650841720702 ] } },
{ "type": "Feature", "properties": { "name": "Kanakanagar-Near kumaraswamylayout", "all_names": "Kanakanagar-Near kumaraswamylayout", "sources": "lowlying_locations", "n_raw_points": 1, "lon": 77.571760863770905, "lat": 12.902480333207798, "label": 1 }, "geometry": { "type": "Point", "coordinates": [ 77.571760863770905, 12.902480333207798 ] } },
{ "type": "Feature", "properties": { "name": "Dorakere", "all_names": "Dorakere", "sources": "lowlying_locations", "n_raw_points": 1, "lon": 77.545711749913593, "lat": 12.903357665526197, "label": 1 }, "geometry": { "type": "Point", "coordinates": [ 77.545711749913593, 12.903357665526197 ] } }
]
}
